[{"OBJECT_NAME":"HERMES-3","OBJECT_ID":"2025-052BR","EPOCH":"2026-03-09T22:30:01.073952","MEAN_MOTION":15.30039786,"ECCENTRICITY":0.00079928,"INCLINATION":97.3987,"RA_OF_ASC_NODE":324.6131,"ARG_OF_PERICENTER":112.9583,"MEAN_ANOMALY":247.2502,"EPHEMERIS_TYPE":0,"CLASSIFICATION_TYPE":"U","NORAD_CAT_ID":63835,"ELEMENT_SET_NO":999,"REV_AT_EPOCH":5486,"BSTAR":0.0006995793,"MEAN_MOTION_DOT":0.00020316,"MEAN_MOTION_DDOT":0},{"OBJECT_NAME":"STARLINK-35622","OBJECT_ID":"2025-236T","EPOCH":"2026-03-09T11:54:58.350816","MEAN_MOTION":15.30199382,"ECCENTRICITY":0.00012826,"INCLINATION":53.1592,"RA_OF_ASC_NODE":104.8678,"ARG_OF_PERICENTER":57.9263,"MEAN_ANOMALY":302.1862,"EPHEMERIS_TYPE":0,"CLASSIFICATION_TYPE":"U","NORAD_CAT_ID":66103,"ELEMENT_SET_NO":999,"REV_AT_EPOCH":2291,"BSTAR":0.0010900218,"MEAN_MOTION_DOT":0.00032063,"MEAN_MOTION_DDOT":0}]
